{
  "norad_id": 65336,
  "name": "STARLINK-34835",
  "history": [
    {
      "epoch": "2026-05-04T19:20:00.292416Z",
      "apogee_km": 475.9367831182717,
      "perigee_km": 474.45646305568516,
      "latitude_deg": -2.1681456849661357e-05,
      "longitude_deg": 153.7357448418446,
      "height_km": 475.9570460206531,
      "semi_major_axis_km": 6853.333623086978,
      "eccentricity": 0.000108,
      "inclination_deg": 53.1591,
      "raan_deg": 306.4266,
      "arg_perigee_deg": 79.2666,
      "mean_anomaly_deg": 280.8456,
      "mean_motion_rev_day": 15.30206178
    },
    {
      "epoch": "2026-05-05T17:16:45.146208Z",
      "apogee_km": 476.30274984517655,
      "perigee_km": 473.9863406828772,
      "latitude_deg": 3.2790918790354855e-06,
      "longitude_deg": 179.39998748680833,
      "height_km": 475.7262508861588,
      "semi_major_axis_km": 6853.281545264026,
      "eccentricity": 0.000169,
      "inclination_deg": 53.1594,
      "raan_deg": 302.179,
      "arg_perigee_deg": 74.176,
      "mean_anomaly_deg": 285.9427,
      "mean_motion_rev_day": 15.3022362
    },
    {
      "epoch": "2026-05-06T18:21:36.610848Z",
      "apogee_km": 475.7733823079443,
      "perigee_km": 474.69329114287666,
      "latitude_deg": 1.3405869997780458e-05,
      "longitude_deg": 157.30351650948867,
      "height_km": 476.10054950432635,
      "semi_major_axis_km": 6853.37033672541,
      "eccentricity": 7.88e-05,
      "inclination_deg": 53.1583,
      "raan_deg": 297.327,
      "arg_perigee_deg": 86.675,
      "mean_anomaly_deg": 273.4341,
      "mean_motion_rev_day": 15.30193882
    },
    {
      "epoch": "2026-05-07T17:52:24.333312Z",
      "apogee_km": 475.83088690487784,
      "perigee_km": 474.5397209828143,
      "latitude_deg": -3.794546097185103e-05,
      "longitude_deg": 159.08777605770848,
      "height_km": 476.1230046362101,
      "semi_major_axis_km": 6853.322303943846,
      "eccentricity": 9.42e-05,
      "inclination_deg": 53.1593,
      "raan_deg": 292.7758,
      "arg_perigee_deg": 93.4854,
      "mean_anomaly_deg": 266.6254,
      "mean_motion_rev_day": 15.30209969
    },
    {
      "epoch": "2026-05-08T17:23:11.895072Z",
      "apogee_km": 475.338505321035,
      "perigee_km": 475.04929475705194,
      "latitude_deg": 7.310682731901931e-05,
      "longitude_deg": 160.8717285864992,
      "height_km": 475.9584552650964,
      "semi_major_axis_km": 6853.330900039043,
      "eccentricity": 2.11e-05,
      "inclination_deg": 53.1594,
      "raan_deg": 288.2235,
      "arg_perigee_deg": 339.1893,
      "mean_anomaly_deg": 20.91,
      "mean_motion_rev_day": 15.3020709
    }
  ]
}